{"fetched_at":"2026-03-30T06:02:59Z","count":15439,"tles":[{"name":"STARLINK-32738","line1":"1 63046U 25034T   26087.65097436  .00017204  00000+0  59138-3 0  9998","line2":"2 63046  53.1592 169.7835 0001157  92.4092 267.7041 15.30213925 61998","category":"Starlink"}]}