{
  "norad_id": 63046,
  "name": "STARLINK-32738",
  "history": [
    {
      "epoch": "2026-03-28T15:37:24.184704Z",
      "apogee_km": 475.9664202185668,
      "perigee_km": 474.3805641706731,
      "latitude_deg": -1.5272183739158053e-05,
      "longitude_deg": 109.36435358423236,
      "height_km": 476.10497529824323,
      "semi_major_axis_km": 6853.31049219462,
      "eccentricity": 0.0001157,
      "inclination_deg": 53.1592,
      "raan_deg": 169.7835,
      "arg_perigee_deg": 92.4092,
      "mean_anomaly_deg": 267.7041,
      "mean_motion_rev_day": 15.30213925
    }
  ]
}